[{"OBJECT_NAME":"ICEYE-X34","OBJECT_ID":"2023-174AQ","EPOCH":"2026-03-09T18:24:55.065600","MEAN_MOTION":15.52138651,"ECCENTRICITY":0.00047103,"INCLINATION":97.3917,"RA_OF_ASC_NODE":156.1967,"ARG_OF_PERICENTER":163.6411,"MEAN_ANOMALY":196.4994,"EPHEMERIS_TYPE":0,"CLASSIFICATION_TYPE":"U","NORAD_CAT_ID":58294,"ELEMENT_SET_NO":999,"REV_AT_EPOCH":13026,"BSTAR":0.00095842398,"MEAN_MOTION_DOT":0.00058207,"MEAN_MOTION_DDOT":0},{"OBJECT_NAME":"SL-14 R\/B","OBJECT_ID":"1981-094B","EPOCH":"2026-03-09T21:30:19.492416","MEAN_MOTION":13.58083744,"ECCENTRICITY":0.08704644,"INCLINATION":82.4854,"RA_OF_ASC_NODE":232.0333,"ARG_OF_PERICENTER":95.3527,"MEAN_ANOMALY":274.7433,"EPHEMERIS_TYPE":0,"CLASSIFICATION_TYPE":"U","NORAD_CAT_ID":12849,"ELEMENT_SET_NO":999,"REV_AT_EPOCH":17275,"BSTAR":0.00019877381,"MEAN_MOTION_DOT":2.264e-5,"MEAN_MOTION_DDOT":0}]
